[{"OBJECT_NAME":"BEIDOU-2 IGSO-5","OBJECT_ID":"2011-073A","EPOCH":"2026-04-26T21:25:24.262752","MEAN_MOTION":1.00260215,"ECCENTRICITY":0.01106297,"INCLINATION":47.7736,"RA_OF_ASC_NODE":272.1759,"ARG_OF_PERICENTER":220.6447,"MEAN_ANOMALY":136.9806,"EPHEMERIS_TYPE":0,"CLASSIFICATION_TYPE":"U","NORAD_CAT_ID":37948,"ELEMENT_SET_NO":999,"REV_AT_EPOCH":5261,"BSTAR":0,"MEAN_MOTION_DOT":-2.15e-6,"MEAN_MOTION_DDOT":0},{"OBJECT_NAME":"AMOS-5","OBJECT_ID":"2011-074A","EPOCH":"2026-04-26T23:34:02.392896","MEAN_MOTION":1.00176096,"ECCENTRICITY":0.00027003,"INCLINATION":8.7011,"RA_OF_ASC_NODE":61.3042,"ARG_OF_PERICENTER":350.7792,"MEAN_ANOMALY":252.752,"EPHEMERIS_TYPE":0,"CLASSIFICATION_TYPE":"U","NORAD_CAT_ID":37950,"ELEMENT_SET_NO":999,"REV_AT_EPOCH":5248,"BSTAR":0,"MEAN_MOTION_DOT":-2.7e-6,"MEAN_MOTION_DDOT":0},{"OBJECT_NAME":"LUCH-5A","OBJECT_ID":"2011-074B","EPOCH":"2026-04-27T11:11:06.931680","MEAN_MOTION":1.00273095,"ECCENTRICITY":0.000276,"INCLINATION":8.628,"RA_OF_ASC_NODE":74.5386,"ARG_OF_PERICENTER":306.0299,"MEAN_ANOMALY":169.5918,"EPHEMERIS_TYPE":0,"CLASSIFICATION_TYPE":"U","NORAD_CAT_ID":37951,"ELEMENT_SET_NO":999,"REV_AT_EPOCH":5254,"BSTAR":0,"MEAN_MOTION_DOT":-5.3e-7,"MEAN_MOTION_DDOT":0},{"OBJECT_NAME":"BREEZE-M R/B","OBJECT_ID":"2011-074C","EPOCH":"2026-04-26T20:46:45.982272","MEAN_MOTION":0.89625393,"ECCENTRICITY":0.0796827,"INCLINATION":11.2645,"RA_OF_ASC_NODE":50.6722,"ARG_OF_PERICENTER":179.3099,"MEAN_ANOMALY":11.9675,"EPHEMERIS_TYPE":0,"CLASSIFICATION_TYPE":"U","NORAD_CAT_ID":37952,"ELEMENT_SET_NO":999,"REV_AT_EPOCH":4668,"BSTAR":0,"MEAN_MOTION_DOT":-1.71e-6,"MEAN_MOTION_DDOT":0},{"OBJECT_NAME":"NIGCOMSAT 1R","OBJECT_ID":"2011-077A","EPOCH":"2026-04-27T04:48:38.757312","MEAN_MOTION":1.00275079,"ECCENTRICITY":0.00024187,"INCLINATION":0.0417,"RA_OF_ASC_NODE":95.7474,"ARG_OF_PERICENTER":250.3228,"MEAN_ANOMALY":343.7991,"EPHEMERIS_TYPE":0,"CLASSIFICATION_TYPE":"U","NORAD_CAT_ID":38014,"ELEMENT_SET_NO":999,"REV_AT_EPOCH":5244,"BSTAR":0,"MEAN_MOTION_DOT":1.34e-6,"MEAN_MOTION_DDOT":0},{"OBJECT_NAME":"WGS F4 (USA 233)","OBJECT_ID":"2012-003A","EPOCH":"2026-04-27T08:20:38.832288","MEAN_MOTION":1.00270259,"ECCENTRICITY":2.83e-5,"INCLINATION":0.0175,"RA_OF_ASC_NODE":223.0164,"ARG_OF_PERICENTER":97.1953,"MEAN_ANOMALY":108.6803,"EPHEMERIS_TYPE":0,"CLASSIFICATION_TYPE":"U","NORAD_CAT_ID":38070,"ELEMENT_SET_NO":999,"REV_AT_EPOCH":4363,"BSTAR":0,"MEAN_MOTION_DOT":-2.24e-6,"MEAN_MOTION_DDOT":0},{"OBJECT_NAME":"DELTA 4 R/B","OBJECT_ID":"2012-003B","EPOCH":"2026-04-26T18:11:22.039008","MEAN_MOTION":1.16864061,"ECCENTRICITY":0.8259773,"INCLINATION":20.6405,"RA_OF_ASC_NODE":106.4179,"ARG_OF_PERICENTER":318.4907,"MEAN_ANOMALY":2.1368,"EPHEMERIS_TYPE":0,"CLASSIFICATION_TYPE":"U","NORAD_CAT_ID":38071,"ELEMENT_SET_NO":999,"REV_AT_EPOCH":6036,"BSTAR":0.0050921,"MEAN_MOTION_DOT":5.953e-5,"MEAN_MOTION_DDOT":0},{"OBJECT_NAME":"FENGYUN 2F AKM","OBJECT_ID":"2012-002C","EPOCH":"2026-04-27T12:24:28.581408","MEAN_MOTION":0.99399225,"ECCENTRICITY":0.0062156,"INCLINATION":9.05,"RA_OF_ASC_NODE":58.3043,"ARG_OF_PERICENTER":206.6319,"MEAN_ANOMALY":316.8146,"EPHEMERIS_TYPE":0,"CLASSIFICATION_TYPE":"U","NORAD_CAT_ID":38072,"ELEMENT_SET_NO":999,"REV_AT_EPOCH":5133,"BSTAR":0,"MEAN_MOTION_DOT":-1.2e-6,"MEAN_MOTION_DDOT":0},{"OBJECT_NAME":"SES-4","OBJECT_ID":"2012-007A","EPOCH":"2026-04-27T05:36:38.688768","MEAN_MOTION":1.00272317,"ECCENTRICITY":0.0002624,"INCLINATION":0.0219,"RA_OF_ASC_NODE":39.3407,"ARG_OF_PERICENTER":16.7401,"MEAN_ANOMALY":221.3232,"EPHEMERIS_TYPE":0,"CLASSIFICATION_TYPE":"U","NORAD_CAT_ID":38087,"ELEMENT_SET_NO":999,"REV_AT_EPOCH":5171,"BSTAR":0,"MEAN_MOTION_DOT":-1.78e-6,"MEAN_MOTION_DDOT":0},{"OBJECT_NAME":"BEIDOU-2 G5","OBJECT_ID":"2012-008A","EPOCH":"2026-04-27T01:49:31.715328","MEAN_MOTION":1.0027321,"ECCENTRICITY":0.00122642,"INCLINATION":3.4486,"RA_OF_ASC_NODE":69.9855,"ARG_OF_PERICENTER":266.1896,"MEAN_ANOMALY":325.0169,"EPHEMERIS_TYPE":0,"CLASSIFICATION_TYPE":"U","NORAD_CAT_ID":38091,"ELEMENT_SET_NO":999,"REV_AT_EPOCH":5185,"BSTAR":0,"MEAN_MOTION_DOT":4.9e-7,"MEAN_MOTION_DDOT":0},{"OBJECT_NAME":"MUOS-1","OBJECT_ID":"2012-009A","EPOCH":"2026-04-27T11:39:23.482080","MEAN_MOTION":1.00270113,"ECCENTRICITY":0.0059695,"INCLINATION":5.3735,"RA_OF_ASC_NODE":47.1774,"ARG_OF_PERICENTER":1.7505,"MEAN_ANOMALY":241.3625,"EPHEMERIS_TYPE":0,"CLASSIFICATION_TYPE":"U","NORAD_CAT_ID":38093,"ELEMENT_SET_NO":999,"REV_AT_EPOCH":5193,"BSTAR":0,"MEAN_MOTION_DOT":-1.33e-6,"MEAN_MOTION_DDOT":0},{"OBJECT_NAME":"INTELSAT 22 (IS-22)","OBJECT_ID":"2012-011A","EPOCH":"2026-04-27T01:59:09.598272","MEAN_MOTION":1.00270693,"ECCENTRICITY":0.00017603,"INCLINATION":0.0221,"RA_OF_ASC_NODE":106.9851,"ARG_OF_PERICENTER":294.0083,"MEAN_ANOMALY":275.9693,"EPHEMERIS_TYPE":0,"CLASSIFICATION_TYPE":"U","NORAD_CAT_ID":38098,"ELEMENT_SET_NO":999,"REV_AT_EPOCH":667,"BSTAR":0,"MEAN_MOTION_DOT":-6.9e-7,"MEAN_MOTION_DDOT":0},{"OBJECT_NAME":"BREEZE-M R/B","OBJECT_ID":"2012-011B","EPOCH":"2026-04-26T00:57:07.102656","MEAN_MOTION":1.11834278,"ECCENTRICITY":0.76038348,"INCLINATION":25.4537,"RA_OF_ASC_NODE":167.2564,"ARG_OF_PERICENTER":4.4241,"MEAN_ANOMALY":359.9324,"EPHEMERIS_TYPE":0,"CLASSIFICATION_TYPE":"U","NORAD_CAT_ID":38099,"ELEMENT_SET_NO":999,"REV_AT_EPOCH":5739,"BSTAR":0,"MEAN_MOTION_DOT":-2.44e-6,"MEAN_MOTION_DDOT":0},{"OBJECT_NAME":"COSMOS 2479","OBJECT_ID":"2012-012A","EPOCH":"2026-04-26T23:58:27.367968","MEAN_MOTION":1.00363147,"ECCENTRICITY":0.000585,"INCLINATION":8.7351,"RA_OF_ASC_NODE":56.8505,"ARG_OF_PERICENTER":247.0732,"MEAN_ANOMALY":300.0872,"EPHEMERIS_TYPE":0,"CLASSIFICATION_TYPE":"U","NORAD_CAT_ID":38101,"ELEMENT_SET_NO":999,"REV_AT_EPOCH":5157,"BSTAR":0,"MEAN_MOTION_DOT":1.4e-6,"MEAN_MOTION_DDOT":0},{"OBJECT_NAME":"SL-12 R/B(2)","OBJECT_ID":"2012-012D","EPOCH":"2026-04-27T12:23:38.616288","MEAN_MOTION":1.00347506,"ECCENTRICITY":0.0012666,"INCLINATION":8.7251,"RA_OF_ASC_NODE":57.0521,"ARG_OF_PERICENTER":302.5206,"MEAN_ANOMALY":247.5206,"EPHEMERIS_TYPE":0,"CLASSIFICATION_TYPE":"U","NORAD_CAT_ID":38104,"ELEMENT_SET_NO":999,"REV_AT_EPOCH":5155,"BSTAR":0,"MEAN_MOTION_DOT":1.22e-6,"MEAN_MOTION_DDOT":0},{"OBJECT_NAME":"APSTAR-7","OBJECT_ID":"2012-013A","EPOCH":"2026-04-27T01:49:21.828576","MEAN_MOTION":1.00271343,"ECCENTRICITY":0.00029975,"INCLINATION":0.0419,"RA_OF_ASC_NODE":58.7537,"ARG_OF_PERICENTER":354.0151,"MEAN_ANOMALY":266.1344,"EPHEMERIS_TYPE":0,"CLASSIFICATION_TYPE":"U","NORAD_CAT_ID":38107,"ELEMENT_SET_NO":999,"REV_AT_EPOCH":5129,"BSTAR":0,"MEAN_MOTION_DOT":-1.12e-6,"MEAN_MOTION_DDOT":0},{"OBJECT_NAME":"YAHSAT 1B","OBJECT_ID":"2012-016A","EPOCH":"2026-04-27T07:21:38.625120","MEAN_MOTION":1.00270726,"ECCENTRICITY":0.0002555,"INCLINATION":0.0859,"RA_OF_ASC_NODE":86.3159,"ARG_OF_PERICENTER":318.0273,"MEAN_ANOMALY":328.9696,"EPHEMERIS_TYPE":0,"CLASSIFICATION_TYPE":"U","NORAD_CAT_ID":38245,"ELEMENT_SET_NO":999,"REV_AT_EPOCH":4509,"BSTAR":0,"MEAN_MOTION_DOT":1.17e-6,"MEAN_MOTION_DDOT":0}]
