BEIDOU-2 IGSO-5         
1 37948U 11073A   26116.89264193 -.00000215  00000+0  00000+0 0  9998
2 37948  47.7736 272.1759 0110629 220.6447 136.9806  1.00260215 52618
AMOS-5                  
1 37950U 11074A   26116.98197214 -.00000270  00000+0  00000+0 0  9992
2 37950   8.7011  61.3042 0002700 350.7792 252.7520  1.00176096 52483
LUCH-5A                 
1 37951U 11074B   26117.46605245 -.00000053  00000+0  00000+0 0  9994
2 37951   8.6280  74.5386 0002760 306.0299 169.5918  1.00273095 52540
BREEZE-M R/B            
1 37952U 11074C   26116.86580998 -.00000171  00000+0  00000+0 0  9996
2 37952  11.2645  50.6722 0796827 179.3099  11.9675  0.89625393 46684
NIGCOMSAT 1R            
1 38014U 11077A   26117.20044858  .00000134  00000+0  00000+0 0  9996
2 38014   0.0417  95.7474 0002418 250.3228 343.7991  1.00275079 52445
WGS F4 (USA 233)        
1 38070U 12003A   26117.34767167 -.00000224  00000+0  00000+0 0  9999
2 38070   0.0175 223.0164 0000283  97.1953 108.6803  1.00270259 43636
DELTA 4 R/B             
1 38071U 12003B   26116.75789397  .00005953  00000+0  50921-2 0  9996
2 38071  20.6405 106.4179 8259773 318.4907   2.1368  1.16864061 60367
FENGYUN 2F AKM          
1 38072U 12002C   26117.51699747 -.00000120  00000+0  00000+0 0  9992
2 38072   9.0500  58.3043 0062156 206.6319 316.8146  0.99399225 51335
SES-4                   
1 38087U 12007A   26117.23378112 -.00000178  00000+0  00000+0 0  9995
2 38087   0.0219  39.3407 0002624  16.7401 221.3232  1.00272317 51711
BEIDOU-2 G5             
1 38091U 12008A   26117.07606152  .00000049  00000+0  00000+0 0  9997
2 38091   3.4486  69.9855 0012264 266.1896 325.0169  1.00273210 51854
MUOS-1                  
1 38093U 12009A   26117.48568845 -.00000133  00000+0  00000+0 0  9996
2 38093   5.3735  47.1774 0059695   1.7505 241.3625  1.00270113 51936
INTELSAT 22 (IS-22)     
1 38098U 12011A   26117.08274998 -.00000069  00000+0  00000+0 0  9991
2 38098   0.0221 106.9851 0001760 294.0083 275.9693  1.00270693  6673
BREEZE-M R/B            
1 38099U 12011B   26116.03966554 -.00000244  00000+0  00000+0 0  9997
2 38099  25.4537 167.2564 7603834   4.4241 359.9324  1.11834278 57398
COSMOS 2479             
1 38101U 12012A   26116.99892787  .00000140  00000+0  00000+0 0  9997
2 38101   8.7351  56.8505 0005850 247.0732 300.0872  1.00363147 51574
SL-12 R/B(2)            
1 38104U 12012D   26117.51641917  .00000122  00000+0  00000+0 0  9996
2 38104   8.7251  57.0521 0012666 302.5206 247.5206  1.00347506 51558
APSTAR-7                
1 38107U 12013A   26117.07594709 -.00000112  00000+0  00000+0 0  9997
2 38107   0.0419  58.7537 0002997 354.0151 266.1344  1.00271343 51290
YAHSAT 1B               
1 38245U 12016A   26117.30669705  .00000117  00000+0  00000+0 0  9992
2 38245   0.0859  86.3159 0002555 318.0273 328.9696  1.00270726 45095
